[{"OBJECT_NAME":"STARLINK-31459","OBJECT_ID":"2024-049C","EPOCH":"2026-03-09T05:11:09.763872","MEAN_MOTION":15.27579059,"ECCENTRICITY":7.958e-5,"INCLINATION":43.0004,"RA_OF_ASC_NODE":146.2142,"ARG_OF_PERICENTER":294.7089,"MEAN_ANOMALY":65.368,"EPHEMERIS_TYPE":0,"CLASSIFICATION_TYPE":"U","NORAD_CAT_ID":59233,"ELEMENT_SET_NO":999,"REV_AT_EPOCH":11232,"BSTAR":-8.9984727e-5,"MEAN_MOTION_DOT":-2.737e-5,"MEAN_MOTION_DDOT":0},{"OBJECT_NAME":"LIME","OBJECT_ID":"2025-009AR","EPOCH":"2026-03-09T17:44:15.459648","MEAN_MOTION":15.28703313,"ECCENTRICITY":0.00016347,"INCLINATION":97.3985,"RA_OF_ASC_NODE":151.4831,"ARG_OF_PERICENTER":35.9029,"MEAN_ANOMALY":324.232,"EPHEMERIS_TYPE":0,"CLASSIFICATION_TYPE":"U","NORAD_CAT_ID":62648,"ELEMENT_SET_NO":999,"REV_AT_EPOCH":6376,"BSTAR":0.00047722827,"MEAN_MOTION_DOT":0.00013254,"MEAN_MOTION_DDOT":0}]
